IRIDIUM 136             
1 42962U 17061H   24273.77877986  .00000135  00000+0  41287-4 0  9999
2 42962  86.3913 286.5947 0002158  91.8904 268.2539 14.34216996365197
